CAS-2T & KS-1Q          
1 41847U 16066G   20229.73992515  .00000028  00000-0  14015-4 0  9994
2 41847  98.6493 280.8438 0366440  49.4141 313.8331 14.38084923198084
NAYIF-1 (EO-88)         
1 42017U 17008BX  20229.85381748  .00001194  00000-0  48295-4 0  9996
2 42017  97.3561 296.5272 0007896 105.4212 254.7899 15.26645422194763
MAX VALIER SAT          
1 42778U 17036P   20229.73580505  .00000686  00000-0  32309-4 0  9994
2 42778  97.3004 281.6912 0012717 162.5145 197.6532 15.22710518174900
RADFXSAT (FOX-1B)       
1 43017U 17073E   20229.73826500  .00000170  00000-0  19045-4 0  9990
2 43017  97.7185 139.6456 0255910 213.6751 144.7975 14.78991832148074
FOX-1D (AO-92)          
1 43137U 18004AC  20229.88348067  .00000770  00000-0  34493-4 0  9991
2 43137  97.4424 300.6278 0008672 193.0956 167.0057 15.24221443144252
DIWATA-2B               
1 43678U 18084H   20229.84770893  .00000358  00000-0  41309-4 0  9997
2 43678  97.8905 348.2711 0009595 345.6887  14.4036 14.91648087 98028
ES'HAIL 2               
1 43700U 18090A   20229.85796670  .00000140  00000-0  00000-0 0  9990
2 43700   0.0144 109.1067 0001722  68.2488 122.9990  1.00270738  6317
FOX-1CLIFF (AO-95)      
1 43770U 18099N   20229.88020836  .00000585  00000-0  58620-4 0  9991
2 43770  97.7026 300.1978 0014402   1.9332 358.1942 14.95023180 92940
ITASAT 1                
1 43786U 18099AE  20229.72969550  .00000154  00000-0  19119-4 0  9998
2 43786  97.7038 300.5127 0014881 355.0861   5.0212 14.95355055 92948
JY1SAT (JO-97)          
1 43803U 18099AX  20229.73698728  .00000456  00000-0  46302-4 0  9994
2 43803  97.7000 300.3246 0014768 355.6688   4.4403 14.95538913 92945
PSAT2 (NO-104)          
1 44354U 19036R   20229.64645993  .00011529  00000-0  16579-3 0  9999
2 44354  28.5337 345.0415 0359818 234.2804 122.3803 15.04575958 62892
BRICSAT2 (NO-103)       
1 44355U 19036S   20229.62224265  .00019078  00000-0  26056-3 0  9991
2 44355  28.5337 333.1070 0334715 253.6957 102.6578 15.10947979 63008
JAISAT-1                
1 44419U 19038F   20229.87812194  .00000590  00000-0  37190-4 0  9996
2 44419  97.5431 190.7845 0019941 283.9243  75.9770 15.12866386 61730
DUCHIFAT-3              
1 44854U 19089C   20229.77412556  .00000269  00000-0  28154-4 0  9995
2 44854  36.9641 101.8579 0008167 201.5409 158.4945 14.99103299 37351
RS-44 & BREEZE-KM R/B   
1 44909U 19096E   20229.79425782  .00000015  00000-0  88466-5 0  9993
2 44909  82.5236 315.2230 0218478  85.5115 277.0908 12.79707618 29906
ORBITAL FACTORY 2 (OF-2)
1 45113U 19071C   20229.76670242  .00001463  00000-0  55889-4 0  9994
2 45113  51.6443  72.1533 0012290 275.1326  84.8253 15.33535640 30389
HUSKYSAT-1              
1 45119U 19071J   20229.86715331  .00000926  00000-0  39396-4 0  9998
2 45119  51.6442  71.3243 0011583 271.6994  88.2662 15.33738449 30394
